KUIPER-00104            
1 65142U 25171L   25355.15655993 -.00018288  00000+0 -25680-2 0  9998
2 65142  51.9016 144.4178 0003408 276.9302  83.1271 14.76661061 21277
KUIPER-00105            
1 65143U 25171M   25355.46973054  .00002820  00000+0  39854-3 0  9996
2 65143  51.8985 151.5387 0012392 202.2017 157.8410 14.79952446 21200
KUIPER-00106            
1 65144U 25171N   25355.46804713  .00004864  00000+0  44483-3 0  9996
2 65144  51.8921 150.2904 0009234 198.0704 161.9938 14.96565525 21228
KUIPER-00107            
1 65145U 25171P   25355.50002315 -.00039498  00000+0 -41207-2 0  9993
2 65145  51.8975 134.2291 0004804 267.5021 322.4048 14.89327713  4764
KUIPER-00108            
1 65146U 25171Q   25354.83337235  .00002329  00000+0  33408-3 0  9997
2 65146  51.9010 149.2908 0008171 208.1769 151.8752 14.79990037 21183
KUIPER-00109            
1 65147U 25171R   25354.80516682 -.00000317  00000+0 -12161-4 0  9991
2 65147  51.9008 144.3597 0011686 223.5991 136.4048 14.79936827 21245
KUIPER-00110            
1 65148U 25171S   25354.00002315  .00008693  00000+0  11666-2 0  9997
2 65148  51.8973 160.5300 0002499 239.5856  38.0177 14.79977123  2385
KUIPER-00111            
1 65149U 25171T   25355.46162708  .00002282  00000+0  32823-3 0  9999
2 65149  51.8980 158.9926 0008493 212.3219 147.7224 14.79949169 21090
